COSMOS 2433 (720)       
1 32275U 07052A   24262.13215899 -.00000050  00000+0  00000+0 0  9991
2 32275  65.8975 337.2909 0004843 229.2690 130.7546  2.13103983131486
COSMOS 2432 (719)       
1 32276U 07052B   24261.26820425 -.00000048  00000+0  00000+0 0  9999
2 32276  65.9132 337.4353 0008937 311.9672  51.1974  2.13102998131492
COSMOS 2434 (721)       
1 32393U 07065A   24262.37901135  .00000023  00000+0  00000+0 0  9996
2 32393  64.3203 213.4174 0001035  51.9951  29.6439  2.13101207130207
COSMOS 2436 (723)       
1 32395U 07065C   24262.21604678  .00000022  00000+0  00000+0 0  9992
2 32395  64.3289 213.4884 0016484 356.2695  95.3740  2.13099981130155
COSMOS 2456 (730)       
1 36111U 09070A   24262.57166747  .00000053  00000+0  00000+0 0  9993
2 36111  64.6560  92.7524 0001706 341.6647  41.8631  2.13103746114865
COSMOS 2457 (733)       
1 36112U 09070B   24262.60508027  .00000053  00000+0  00000+0 0  9999
2 36112  64.6408  92.6080 0006026 141.4915  40.9415  2.13101186114863
COSMOS 2460 (732)       
1 36402U 10007C   24262.37743407 -.00000049  00000+0  00000+0 0  9996
2 36402  65.7520 335.9322 0001989 216.8193 144.0509  2.13106127113164
COSMOS 2476 (744)       
1 37867U 11064A   24261.51505965  .00000066  00000+0  00000+0 0  9994
2 37867  64.9270  94.4581 0021614 231.1017 333.9286  2.13101567100170
COSMOS 2477 (745)       
1 37868U 11064B   24261.45169916  .00000067  00000+0  00000+0 0  9991
2 37868  64.9340  94.5337 0018768 231.3803 103.6159  2.13103051100160
COSMOS 2475 (743)       
1 37869U 11064C   24262.56094385  .00000056  00000+0  00000+0 0  9990
2 37869  64.9415  94.5117 0023154 248.5709 175.4040  2.13101826100209
COSMOS 2485 (747)       
1 39155U 13019A   24262.12826607  .00000061  00000+0  00000+0 0  9990
2 39155  65.0841  95.0410 0022092 227.0594 132.8297  2.13101788 88708
COSMOS 2492 (754)       
1 39620U 14012A   24261.14495719 -.00000045  00000+0  00000+0 0  9991
2 39620  65.6336 335.5372 0012034 310.7305  49.2314  2.13103046 81640
COSMOS 2500 (755)       
1 40001U 14032A   24262.26162034 -.00000048  00000+0  00000+0 0  9996
2 40001  65.5702 335.2973 0008758 205.5778 154.4469  2.13105841 79886
COSMOS 2501 (702K)      
1 40315U 14075A   24261.10793343  .00000018  00000+0  00000+0 0  9992
2 40315  63.6214 212.4812 0020511 210.2363 149.6214  2.13101331 76255
COSMOS 2514 (751)       
1 41330U 16008A   24262.96785032 -.00000051  00000+0  00000+0 0  9997
2 41330  65.3638 334.7592 0012727 211.4792 148.5135  2.13102501 67063
COSMOS 2522 (752)       
1 42939U 17055A   24262.33844049  .00000023  00000+0  00000+0 0  9999
2 42939  64.0825 213.5825 0009266 240.7232 119.1598  2.13101849 54409
COSMOS 2527 (756)       
1 43508U 18053A   24262.76720162  .00000055  00000+0  00000+0 0  9992
2 43508  65.2440  95.1909 0007300 214.8914 145.1319  2.13102270 48717
COSMOS 2529 (757)       
1 43687U 18086A   24262.39651352  .00000023  00000+0  00000+0 0  9994
2 43687  64.2981 214.1182 0010705 260.3477  99.5067  2.13101902 45713
COSMOS 2534 (758)       
1 44299U 19030A   24262.30987192  .00000023  00000+0  00000+0 0  9999
2 44299  64.3713 214.0833 0012617 280.7350 146.8938  2.13101820 41357
COSMOS 2544 (759)       
1 44850U 19088A   24262.24206348  .00000061  00000+0  00000+0 0  9997
2 44850  65.2307  95.0436 0011421 248.5107 111.4417  2.13102034 37149
COSMOS 2545 (760)       
1 45358U 20018A   24261.96962108 -.00000048  00000+0  00000+0 0  9993
2 45358  64.7037 334.7283 0011254 239.1404 120.8170  2.13102378 35082
COSMOS 2547 (705K)      
1 46805U 20075A   24262.15624328  .00000023  00000+0  00000+0 0  9997
2 46805  64.6005 213.7577 0008242 241.0849 118.8079  2.13102720 30333
COSMOS 2557 (706K)      
1 52984U 22075A   24262.32199331 -.00000052  00000+0  00000+0 0  9997
2 52984  64.6328 336.8375 0012729 273.3287  86.5917  2.13102154 17145
COSMOS 2559 (707K)      
1 54031U 22130A   24262.26518717 -.00000052  00000+0  00000+0 0  9990
2 54031  64.6046 336.9538 0007974 221.7259 138.2787  2.13101418 15118
COSMOS 2564 (761)       
1 54377U 22161A   24262.92484186  .00000027  00000+0  00000+0 0  9993
2 54377  64.7418 213.8535 0010574 223.0219 136.8723  2.13102051 14078
COSMOS 2569 (703K)      
1 57517U 23114A   24262.47237503  .00000057  00000+0  00000+0 0  9993
2 57517  64.9588  94.1515 0008692 294.9149  65.0662  2.13103867  8694
